1 45163U 20008AJ  23220.35096679  .00000310  00000-0  85147-3 0  9995
2 45163  87.8806 243.5768 0001982  89.0029 271.1326 13.10376956172239
1 45163U 20008AJ  23221.57268432 -.00000276  00000-0 -82716-3 0  9990
2 45163  87.8806 243.3335 0001981  88.6454 271.4901 13.10374619172396
1 45163U 20008AJ  23222.79440111 -.00000499  00000-0 -14662-2 0  9992
2 45163  87.8806 243.0902 0001971  88.6983 271.4370 13.10374076172554
1 45163U 20008AJ  23224.09247780 -.00000405  00000-0 -11973-2 0  9993
2 45163  87.8807 242.8316 0001972  88.8687 271.2666 13.10371568172723
1 45163U 20008AJ  23225.77234344 -.00000503  00000-0 -14772-2 0  9990
2 45163  87.8804 242.4973 0001967  88.4206 271.7147 13.10370014172940
1 45163U 20008AJ  23227.07042365 -.00000563  00000-0 -16494-2 0  9994
2 45163  87.8802 242.2389 0001971  88.5357 271.5996 13.10369289173112
1 45163U 20008AJ  23228.44486440 -.00000518  00000-0 -15209-2 0  9995
2 45163  87.8798 241.9651 0001944  88.2742 271.8608 13.10367936173298
1 45163U 20008AJ  23229.74294874 -.00000296  00000-0 -88335-3 0  9991
2 45163  87.8796 241.7066 0001924  88.3227 271.8120 13.10367064173461
1 45163U 20008AJ  23231.04103399 -.00000003  00000-0 -45539-4 0  9994
2 45163  87.8797 241.4481 0001940  88.3074 271.8275 13.10366878173630
1 45163U 20008AJ  23232.11004584  .00000220  00000-0  59455-3 0  9999
2 45163  87.8797 241.2351 0001948  88.2939 271.8412 13.10366815173770
1 45163U 20008AJ  23233.48448546  .00000712  00000-0  20042-2 0  9995
2 45163  87.8798 240.9609 0001929  88.9871 271.1477 13.10369916173953
1 45163U 20008AJ  23235.08799677  .00000761  00000-0  21442-2 0  9996
2 45163  87.8802 240.6414 0001964  89.8633 270.2719 13.10372224174164
1 45163U 20008AJ  23236.46243175  .00000707  00000-0  19894-2 0  9994
2 45163  87.8805 240.3680 0001937  88.2551 271.8798 13.10373961173590
1 45163U 20008AJ  23237.45507738  .00000594  00000-0  16659-2 0  9992
2 45163  87.8807 240.1702 0001926  87.7104 272.4244 13.10375293174472
1 45163U 20008AJ  23237.53143460  .00000649  00000-0  18233-2 0  9990
2 45163  87.8805 240.1551 0001923  86.7172 273.4175 13.10375314173739
1 45163U 20008AJ  23238.44772215  .00000440  00000-0  12236-2 0  9993
2 45163  87.8808 239.9726 0001921  86.3978 273.7369 13.10375964173852
1 45163U 20008AJ  23239.05857987  .00000381  00000-0  10560-2 0  9993
2 45163  87.8808 239.8509 0001926  85.5009 274.6338 13.10376231174687
1 45163U 20008AJ  23239.36400807  .00000383  00000-0  10609-2 0  9998
2 45163  87.8809 239.7902 0001929  85.4470 274.6877 13.10376834173976
1 45163U 20008AJ  23239.89850844  .00000178  00000-0  47345-3 0  9996
2 45163  87.8810 239.6838 0001926  85.4824 274.6524 13.10377088174045
1 45163U 20008AJ  23240.28029448  .00000107  00000-0  26905-3 0  9990
2 45163  87.8811 239.6078 0001918  86.2615 273.8731 13.10376766174841
1 45163U 20008AJ  23240.73843391 -.00002878  00000-0 -82809-2 0  9994
2 45163  87.8811 239.5167 0001893  81.5272 278.6070 13.10390679174150
1 45163U 20008AJ  23240.73843391 -.00002878  00000-0 -82809-2 0  9994
2 45163  87.8811 239.5167 0001893  81.5272 278.6070 13.10390679174903
1 45163U 20008AJ  23241.04386591 -.00000078  00000-0 -26042-3 0  9991
2 45163  87.8812 239.4559 0001926  86.4232 273.7116 13.10376790174944
1 45163U 20008AJ  23241.50200877 -.00000181  00000-0 -55406-3 0  9995
2 45163  87.8812 239.3647 0001918  86.3077 273.8270 13.10376716174252
1 45163U 20008AJ  23242.49465224 -.00000393  00000-0 -11628-2 0  9995
2 45163  87.8813 239.1671 0001925  86.2699 273.8648 13.10376064175138
1 45163U 20008AJ  23242.72372629  .00000573  00000-0  16040-2 0  9998
2 45163  87.8813 239.1215 0002154  85.8554 274.2820 13.10370138174415
1 45163U 20008AJ  23243.25822419 -.00000485  00000-0 -14263-2 0  9993
2 45163  87.8813 239.0151 0001914  86.1712 273.9634 13.10375961174481
1 45163U 20008AJ  23243.94543977 -.00000272  00000-0 -81680-3 0  9990
2 45163  87.8813 238.8782 0001889  86.9706 273.1638 13.10374285175328
1 45163U 20008AJ  23244.25086969 -.00000418  00000-0 -12342-2 0  9998
2 45163  87.8823 238.8184 0001827  85.9246 274.2090 13.10373506174615
1 45163U 20008AJ  23244.70901244 -.00001545  00000-0 -44632-2 0  9999
2 45163  87.8830 238.7268 0001997  84.5852 275.5503 13.10379507174677
1 45163U 20008AJ  23245.01444302 -.00000649  00000-0 -18958-2 0  9997
2 45163  87.8827 238.6660 0001898  85.9186 274.2158 13.10374109175466
1 45163U 20008AJ  23245.54894525 -.00000672  00000-0 -19620-2 0  9994
2 45163  87.8812 238.5590 0001926  86.2147 273.9201 13.10373440174780
1 45163U 20008AJ  23245.70166012 -.00000653  00000-0 -19076-2 0  9999
2 45163  87.8810 238.5289 0001925  86.0969 274.0378 13.10373362174805
1 45163U 20008AJ  23246.23616258 -.00000596  00000-0 -17451-2 0  9991
2 45163  87.8812 238.4223 0001902  85.8639 274.2705 13.10372798174875
1 45163U 20008AJ  23246.23616258 -.00000596  00000-0 -17451-2 0  9991
2 45163  87.8812 238.4223 0001902  85.8639 274.2705 13.10372798175629
1 45163U 20008AJ  23247.22881136 -.00000500  00000-0 -14687-2 0  9993
2 45163  87.8811 238.2246 0001888  85.7960 274.3383 13.10371682175006
1 45163U 20008AJ  23247.68695691 -.00000420  00000-0 -12406-2 0  9990
2 45163  87.8812 238.1335 0001880  85.7209 274.4133 13.10371836175817
1 45163U 20008AJ  23248.37417635 -.00000303  00000-0 -90570-3 0  9996
2 45163  87.8811 237.9966 0001863  85.5547 274.5793 13.10371111175153
1 45163U 20008AJ  23249.21410463  .00000535  00000-0  14972-2 0  9998
2 45163  87.8813 237.8293 0001829  85.2564 274.8772 13.10375940175261
1 45163U 20008AJ  23249.21410463  .00000535  00000-0  14972-2 0  9998
2 45163  87.8813 237.8293 0001829  85.2564 274.8772 13.10375940176015
1 45163U 20008AJ  23249.90129490  .00002765  00000-0  78805-2 0  9993
2 45163  87.8813 237.6924 0001817  85.1255 275.0080 13.10395777175358
1 45163U 20008AJ  23249.97765095  .00002787  00000-0  79418-2 0  9992
2 45163  87.8813 237.6772 0001820  85.1370 274.9965 13.10396240176112
1 45163U 20008AJ  23250.35943096  .00002819  00000-0  80331-2 0  9997
2 45163  87.8813 237.6010 0001797  85.8198 274.3134 13.10398393175410
1 45163U 20008AJ  23251.04664444  .00009297  00000-0  26573-1 0  9995
2 45163  87.8815 237.4645 0002035  90.4673 269.6687 13.10367957176255
1 45163U 20008AJ  23251.42841225  .00000353  00000-0  97357-3 0  9995
2 45163  87.8820 237.3883 0001938  87.0517 273.0832 13.10412265176304
1 45163U 20008AJ  23251.50476770  .00000351  00000-0  96806-3 0  9999
2 45163  87.8819 237.3731 0001933  86.6745 273.4603 13.10412175175564
1 45163U 20008AJ  23251.88654412  .00000442  00000-0  12298-2 0  9994
2 45163  87.8817 237.2974 0001908  84.7247 275.4098 13.10412490175614
1 45163U 20008AJ  23252.49738640  .00000505  00000-0  14109-2 0  9991
2 45163  87.8820 237.1758 0001908  84.7776 275.3569 13.10412833175695
1 45163U 20008AJ  23252.72645212  .00000507  00000-0  14146-2 0  9992
2 45163  87.8821 237.1302 0001904  84.5426 275.5919 13.10413156176474
1 45163U 20008AJ  23253.49000349  .00000708  00000-0  19906-2 0  9995
2 45163  87.8822 236.9783 0001898  84.0254 276.1090 13.10414060175821
1 45163U 20008AJ  23254.02448895  .00000702  00000-0  19741-2 0  9998
2 45163  87.8824 236.8720 0001887  83.7276 276.4066 13.10415254176644
1 45163U 20008AJ  23254.48261978  .00000731  00000-0  20574-2 0  9991
2 45163  87.8825 236.7808 0001888  83.3329 276.8013 13.10415091175955
1 45163U 20008AJ  23255.39887989  .00000654  00000-0  18367-2 0  9999
2 45163  87.8827 236.5985 0001892  83.5258 276.6085 13.10416018176823
1 45163U 20008AJ  23255.47523465  .00000697  00000-0  19586-2 0  9995
2 45163  87.8828 236.5833 0001895  83.5304 276.6039 13.10416193176082
1 45163U 20008AJ  23255.85700982  .00000571  00000-0  15974-2 0  9996
2 45163  87.8828 236.5073 0001888  83.5592 276.5750 13.10416114176137
1 45163U 20008AJ  23256.39151303 -.00001391  00000-0 -40187-2 0  9990
2 45163  87.8820 236.3994 0001583  77.3618 282.7687 13.10400653176950
1 45163U 20008AJ  23256.46787188 -.00001724  00000-0 -49728-2 0  9994
2 45163  87.8840 236.3829 0001857  73.4786 286.6545 13.10399271176214
1 45163U 20008AJ  23256.69694489 -.00002372  00000-0 -68319-2 0  9997
2 45163  87.8830 236.3401 0001831  85.2454 274.8882 13.10393553176999
1 45163U 20008AJ  23256.92601646 -.00002540  00000-0 -73124-2 0  9993
2 45163  87.8829 236.2946 0001905  84.8577 275.2768 13.10390662176270
1 45163U 20008AJ  23257.46051213 -.00002397  00000-0 -69039-2 0  9992
2 45163  87.8834 236.1881 0001883  84.8960 275.2383 13.10388639176346
1 45163U 20008AJ  23257.84229464 -.00002269  00000-0 -65375-2 0  9996
2 45163  87.8833 236.1121 0001866  85.1017 275.0324 13.10388121176394
1 45163U 20008AJ  23257.99500924 -.00002164  00000-0 -62349-2 0  9997
2 45163  87.8834 236.0816 0001869  86.5298 273.6043 13.10385731177166
1 45163U 20008AJ  23258.45315352 -.00000460  00000-0 -13531-2 0  9994
2 45163  87.8832 235.9911 0001852  82.9632 277.1706 13.10376036176478
1 45163U 20008AJ  23258.68222579  .00000139  00000-0  36139-3 0  9998
2 45163  87.8835 235.9454 0001826  83.0334 277.1001 13.10372997177252
1 45163U 20008AJ  23259.44579930  .00000023  00000-0  29353-4 0  9992
2 45163  87.8835 235.7936 0001813  82.6625 277.4708 13.10373078176605
1 45163U 20008AJ  23259.98030030 -.00000097  00000-0 -31328-3 0  9991
2 45163  87.8836 235.6873 0001823  82.9219 277.2116 13.10373810177424
1 45163U 20008AJ  23260.43844586 -.00000197  00000-0 -60137-3 0  9993
2 45163  87.8838 235.5961 0001820  82.9131 277.2203 13.10372017176731
1 45163U 20008AJ  23261.43109194 -.00000389  00000-0 -11516-2 0  9992
2 45163  87.8840 235.3988 0001812  82.9364 277.1970 13.10371995176868
1 45163U 20008AJ  23261.43109194 -.00000389  00000-0 -11516-2 0  9992
2 45163  87.8840 235.3988 0001812  82.9364 277.1970 13.10371995177612
1 45163U 20008AJ  23261.88923724 -.00000563  00000-0 -16487-2 0  9990
2 45163  87.8841 235.3075 0001800  83.1071 277.0261 13.10371386176924
1 45163U 20008AJ  23262.95824200 -.00000629  00000-0 -18378-2 0  9992
2 45163  87.8842 235.0950 0001832  82.6584 277.4751 13.10371451177812
